     2.11           N: GPS NAV DATA                         RINEX VERSION / TYPE
teqc  2019Feb25                         20221121 12:28:05UTCPGM / RUN BY / DATE
OSX ker:10.11.6|Core i5|gcc 4.3 -m64|OSX ker:10.10+|=+      COMMENT
    1.0245D-08  7.4506D-09 -5.9605D-08 -5.9605D-08          ION ALPHA
    8.8064D+04  0.0000D+00 -1.9661D+05 -6.5536D+04          ION BETA
   -1.862645149231D-09-7.993605777301D-15   405504     1552 DELTA-UTC: A0,A1,T,W
                                                            END OF HEADER
 4 09 10  7  0  0  0.0-2.990597859025D-04-1.762145984685D-11 0.000000000000D+00
    4.800000000000D+01 6.187500000000D+01 4.809486048684D-09 1.452824750588D+00
    3.475695848465D-06 8.897837367840D-03 1.256540417671D-05 5.153561130524D+03
    2.592000000000D+05-1.192092895508D-07-2.773938270052D+00 1.415610313416D-07
    9.403762039520D-01 1.273750000000D+02 5.344259386083D-01-8.140696235531D-09
   -2.792973481413D-10 1.000000000000D+00 1.552000000000D+03 0.000000000000D+00
    2.000000000000D+00 0.000000000000D+00-6.053596735001D-09 4.800000000000D+01
    2.561580000000D+05 4.000000000000D+00
12 09 10  7  0  0  0.0-2.082046121359D-04 5.570655048359D-12 0.000000000000D+00
    4.100000000000D+01 2.068750000000D+01 4.479472302287D-09-3.025585218992D+00
    1.104548573494D-06 3.071134095080D-03 6.577000021935D-06 5.153553861618D+03
    2.592000000000D+05-3.539025783539D-08 1.417526406945D+00 2.421438694000D-08
    9.678697830900D-01 2.533750000000D+02-5.791973658494D-01-7.987118409827D-09
    5.332364971548D-10 1.000000000000D+00 1.552000000000D+03 0.000000000000D+00
    2.000000000000D+00 0.000000000000D+00-1.164153218269D-08 4.100000000000D+01
    2.561580000000D+05 4.000000000000D+00
13 09 10  7  0  0  0.0 3.054197877645D-04 3.410605131648D-13 0.000000000000D+00
    1.800000000000D+01-9.890625000000D+01 3.947664436069D-09-7.619488651772D-01
   -5.168840289116D-06 3.961073583923D-03 3.980472683907D-06 5.153643745422D+03
    2.592000000000D+05-4.842877388000D-08-6.211964214272D-01 5.960464477539D-08
    9.943610087959D-01 3.200000000000D+02 1.662319025848D+00-8.088908364073D-09
   -4.193031799462D-10 1.000000000000D+00 1.552000000000D+03 0.000000000000D+00
    2.000000000000D+00 0.000000000000D+00-1.117587089539D-08 1.800000000000D+01
    2.561580000000D+05 4.000000000000D+00
20 09 10  7  0  0  0.0 7.058167830110D-05-9.094947017729D-13 0.000000000000D+00
    8.800000000000D+01 1.218437500000D+02 5.261290582443D-09 1.217240333483D+00
    6.211921572685D-06 3.863684134558D-03 3.322958946228D-06 5.153763889313D+03
    2.592000000000D+05-1.080334186554D-07-1.757500978947D+00-2.235174179077D-08
    9.399515729616D-01 3.033125000000D+02 1.314761460406D+00-8.691076303928D-09
    2.460816788611D-10 1.000000000000D+00 1.552000000000D+03 0.000000000000D+00
    2.000000000000D+00 0.000000000000D+00-7.450580596924D-09 8.800000000000D+01
    2.561580000000D+05 4.000000000000D+00
30 09 10  7  0  0  0.0 1.827809028327D-04 3.069544618484D-12 0.000000000000D+00
    8.700000000000D+01 2.406250000000D+01 4.904132848246D-09 7.429220809553D-01
    1.115724444389D-06 1.193900615908D-02 7.059425115585D-06 5.153658937454D+03
    2.592000000000D+05-1.676380634308D-07 1.367617714653D+00-6.146728992462D-08
    9.530313143110D-01 2.403750000000D+02 1.459686456657D+00-8.423922318749D-09
    4.621621080497D-10 1.000000000000D+00 1.552000000000D+03 0.000000000000D+00
    2.000000000000D+00 0.000000000000D+00-7.916241884232D-09 8.700000000000D+01
    2.561580000000D+05 4.000000000000D+00
 2 09 10  7  0  0  0.0 1.786220818758D-04 3.410605131648D-12 0.000000000000D+00
    4.300000000000D+01 5.912500000000D+01 4.813057626026D-09-1.374595757819D+00
    3.058463335037D-06 9.119964670390D-03 1.191906630993D-05 5.153724571228D+03
    2.592000000000D+05-4.656612873077D-08-2.792133067893D+00-1.247972249985D-07
    9.411969770663D-01 1.400312500000D+02 2.900514095494D+00-8.079979420718D-09
   -7.000291590243D-11 1.000000000000D+00 1.552000000000D+03 0.000000000000D+00
    2.000000000000D+00 0.000000000000D+00-1.722946763039D-08 4.300000000000D+01
    2.561760000000D+05 4.000000000000D+00
29 09 10  7  0  0  0.0 6.378535181284D-05 3.183231456205D-12 0.000000000000D+00
    5.100000000000D+01-3.631250000000D+01 4.824843831255D-09 2.312096287611D+00
   -1.998618245125D-06 3.021132783033D-03 7.247552275658D-06 5.153591794968D+03
    2.592000000000D+05 4.470348358154D-08 2.485945261873D+00-1.303851604462D-08
    9.602166398030D-01 2.433437500000D+02-1.273111928142D+00-8.056764167995D-09
   -3.843017219950D-10 1.000000000000D+00 1.552000000000D+03 0.000000000000D+00
    2.000000000000D+00 0.000000000000D+00-8.847564458847D-09 5.100000000000D+01
    2.584680000000D+05 4.000000000000D+00
10 09 10  7  0  0  0.0-2.524070441723D-05-9.094947017729D-13 0.000000000000D+00
    2.600000000000D+01 9.231250000000D+01 4.959849454781D-09-2.954759819092D-01
    4.865229129791D-06 8.579548681155D-03 3.462657332420D-06 5.153379499435D+03
    2.592000000000D+05-1.676380634308D-08-1.707005959330D+00 1.043081283569D-07
    9.561782749260D-01 3.075312500000D+02 6.169101446009D-01-8.582143194998D-09
    1.210764718925D-10 1.000000000000D+00 1.552000000000D+03 0.000000000000D+00
    2.000000000000D+00 0.000000000000D+00-2.793967723846D-09 2.600000000000D+01
    2.587980000000D+05 4.000000000000D+00
